CCSDS_OMM_VERS = 2.0
CREATION_DATE  = 
ORIGINATOR     = 

OBJECT_NAME    = KUIPER-00203
OBJECT_ID      = 2026-030K
CENTER_NAME    = EARTH
REF_FRAME      = TEME
TIME_SYSTEM    = UTC
MEAN_ELEMENT_THEORY = SGP/SGP4

EPOCH          = 2026-02-21T06:00:02.000160
MEAN_MOTION    = 15.33360625
ECCENTRICITY   = .00124233
INCLINATION    = 51.8795
RA_OF_ASC_NODE = 298.4919
ARG_OF_PERICENTER = 14.1076
MEAN_ANOMALY   = 51.1368

EPHEMERIS_TYPE = 0
CLASSIFICATION_TYPE = U
NORAD_CAT_ID   = 67773
ELEMENT_SET_NO = 999
REV_AT_EPOCH   = 130
BSTAR          = .49662434E-3
MEAN_MOTION_DOT = .15944E-3
MEAN_MOTION_DDOT = 0

CCSDS_OMM_VERS = 2.0
CREATION_DATE  = 
ORIGINATOR     = 

OBJECT_NAME    = KUIPER-00205
OBJECT_ID      = 2026-030L
CENTER_NAME    = EARTH
REF_FRAME      = TEME
TIME_SYSTEM    = UTC
MEAN_ELEMENT_THEORY = SGP/SGP4

EPOCH          = 2026-02-21T06:00:02.000160
MEAN_MOTION    = 15.35586203
ECCENTRICITY   = .00018735
INCLINATION    = 51.8810
RA_OF_ASC_NODE = 298.3617
ARG_OF_PERICENTER = 343.1182
MEAN_ANOMALY   = 147.6340

EPHEMERIS_TYPE = 0
CLASSIFICATION_TYPE = U
NORAD_CAT_ID   = 67774
ELEMENT_SET_NO = 999
REV_AT_EPOCH   = 175
BSTAR          = .62560485E-3
MEAN_MOTION_DOT = .21654E-3
MEAN_MOTION_DDOT = 0

CCSDS_OMM_VERS = 2.0
CREATION_DATE  = 
ORIGINATOR     = 

OBJECT_NAME    = KUIPER-00208
OBJECT_ID      = 2026-030M
CENTER_NAME    = EARTH
REF_FRAME      = TEME
TIME_SYSTEM    = UTC
MEAN_ELEMENT_THEORY = SGP/SGP4

EPOCH          = 2026-02-21T06:00:02.000160
MEAN_MOTION    = 15.32777644
ECCENTRICITY   = .0014905
INCLINATION    = 51.8829
RA_OF_ASC_NODE = 298.5268
ARG_OF_PERICENTER = 14.5895
MEAN_ANOMALY   = 36.8653

EPHEMERIS_TYPE = 0
CLASSIFICATION_TYPE = U
NORAD_CAT_ID   = 67775
ELEMENT_SET_NO = 999
REV_AT_EPOCH   = 231
BSTAR          = .50147363E-3
MEAN_MOTION_DOT = .15821E-3
MEAN_MOTION_DDOT = 0

CCSDS_OMM_VERS = 2.0
CREATION_DATE  = 
ORIGINATOR     = 

OBJECT_NAME    = KUIPER-00209
OBJECT_ID      = 2026-030N
CENTER_NAME    = EARTH
REF_FRAME      = TEME
TIME_SYSTEM    = UTC
MEAN_ELEMENT_THEORY = SGP/SGP4

EPOCH          = 2026-02-21T06:00:02.000160
MEAN_MOTION    = 15.32829338
ECCENTRICITY   = .00124469
INCLINATION    = 51.8823
RA_OF_ASC_NODE = 298.5146
ARG_OF_PERICENTER = 15.0245
MEAN_ANOMALY   = 41.6580

EPHEMERIS_TYPE = 0
CLASSIFICATION_TYPE = U
NORAD_CAT_ID   = 67776
ELEMENT_SET_NO = 999
REV_AT_EPOCH   = 196
BSTAR          = .64348942E-3
MEAN_MOTION_DOT = .20435E-3
MEAN_MOTION_DDOT = 0

CCSDS_OMM_VERS = 2.0
CREATION_DATE  = 
ORIGINATOR     = 

OBJECT_NAME    = KUIPER-00213
OBJECT_ID      = 2026-030P
CENTER_NAME    = EARTH
REF_FRAME      = TEME
TIME_SYSTEM    = UTC
MEAN_ELEMENT_THEORY = SGP/SGP4

EPOCH          = 2026-02-21T06:00:02.000160
MEAN_MOTION    = 15.32916084
ECCENTRICITY   = .00143812
INCLINATION    = 51.8805
RA_OF_ASC_NODE = 298.5126
ARG_OF_PERICENTER = 14.2291
MEAN_ANOMALY   = 41.5410

EPHEMERIS_TYPE = 0
CLASSIFICATION_TYPE = U
NORAD_CAT_ID   = 67777
ELEMENT_SET_NO = 999
REV_AT_EPOCH   = 247
BSTAR          = .48533318E-3
MEAN_MOTION_DOT = .15363E-3
MEAN_MOTION_DDOT = 0

CCSDS_OMM_VERS = 2.0
CREATION_DATE  = 
ORIGINATOR     = 

OBJECT_NAME    = KUIPER-00214
OBJECT_ID      = 2026-030Q
CENTER_NAME    = EARTH
REF_FRAME      = TEME
TIME_SYSTEM    = UTC
MEAN_ELEMENT_THEORY = SGP/SGP4

EPOCH          = 2026-02-21T06:00:02.000160
MEAN_MOTION    = 15.36075313
ECCENTRICITY   = .00016129
INCLINATION    = 51.8844
RA_OF_ASC_NODE = 298.3289
ARG_OF_PERICENTER = 130.0396
MEAN_ANOMALY   = 17.6084

EPHEMERIS_TYPE = 0
CLASSIFICATION_TYPE = U
NORAD_CAT_ID   = 67778
ELEMENT_SET_NO = 999
REV_AT_EPOCH   = 237
BSTAR          = .57079838E-3
MEAN_MOTION_DOT = .20035E-3
MEAN_MOTION_DDOT = 0

CCSDS_OMM_VERS = 2.0
CREATION_DATE  = 
ORIGINATOR     = 

OBJECT_NAME    = KUIPER-00215
OBJECT_ID      = 2026-030R
CENTER_NAME    = EARTH
REF_FRAME      = TEME
TIME_SYSTEM    = UTC
MEAN_ELEMENT_THEORY = SGP/SGP4

EPOCH          = 2026-02-21T06:00:02.000160
MEAN_MOTION    = 15.33786108
ECCENTRICITY   = .00100665
INCLINATION    = 51.8835
RA_OF_ASC_NODE = 298.4715
ARG_OF_PERICENTER = 11.0612
MEAN_ANOMALY   = 67.5743

EPHEMERIS_TYPE = 0
CLASSIFICATION_TYPE = U
NORAD_CAT_ID   = 67779
ELEMENT_SET_NO = 999
REV_AT_EPOCH   = 130
BSTAR          = .52351987E-3
MEAN_MOTION_DOT = .17049E-3
MEAN_MOTION_DDOT = 0

CCSDS_OMM_VERS = 2.0
CREATION_DATE  = 
ORIGINATOR     = 

OBJECT_NAME    = KUIPER-00218
OBJECT_ID      = 2026-030S
CENTER_NAME    = EARTH
REF_FRAME      = TEME
TIME_SYSTEM    = UTC
MEAN_ELEMENT_THEORY = SGP/SGP4

EPOCH          = 2026-02-21T06:00:02.000160
MEAN_MOTION    = 15.34485698
ECCENTRICITY   = .00062831
INCLINATION    = 51.8829
RA_OF_ASC_NODE = 298.4280
ARG_OF_PERICENTER = 8.2762
MEAN_ANOMALY   = 90.9446

EPHEMERIS_TYPE = 0
CLASSIFICATION_TYPE = U
NORAD_CAT_ID   = 67780
ELEMENT_SET_NO = 999
REV_AT_EPOCH   = 134
BSTAR          = .55637855E-3
MEAN_MOTION_DOT = .18544E-3
MEAN_MOTION_DDOT = 0

CCSDS_OMM_VERS = 2.0
CREATION_DATE  = 
ORIGINATOR     = 

OBJECT_NAME    = KUIPER-00220
OBJECT_ID      = 2026-030T
CENTER_NAME    = EARTH
REF_FRAME      = TEME
TIME_SYSTEM    = UTC
MEAN_ELEMENT_THEORY = SGP/SGP4

EPOCH          = 2026-02-21T06:00:02.000160
MEAN_MOTION    = 15.34004123
ECCENTRICITY   = .00079558
INCLINATION    = 51.8806
RA_OF_ASC_NODE = 298.4525
ARG_OF_PERICENTER = 9.3819
MEAN_ANOMALY   = 76.4307

EPHEMERIS_TYPE = 0
CLASSIFICATION_TYPE = U
NORAD_CAT_ID   = 67781
ELEMENT_SET_NO = 999
REV_AT_EPOCH   = 209
BSTAR          = .53116431E-3
MEAN_MOTION_DOT = .17417E-3
MEAN_MOTION_DDOT = 0

CCSDS_OMM_VERS = 2.0
CREATION_DATE  = 
ORIGINATOR     = 

OBJECT_NAME    = KUIPER-00222
OBJECT_ID      = 2026-030U
CENTER_NAME    = EARTH
REF_FRAME      = TEME
TIME_SYSTEM    = UTC
MEAN_ELEMENT_THEORY = SGP/SGP4

EPOCH          = 2026-02-21T06:00:02.000160
MEAN_MOTION    = 15.32419256
ECCENTRICITY   = .00169818
INCLINATION    = 51.8806
RA_OF_ASC_NODE = 298.5352
ARG_OF_PERICENTER = 14.7692
MEAN_ANOMALY   = 29.5525

EPHEMERIS_TYPE = 0
CLASSIFICATION_TYPE = U
NORAD_CAT_ID   = 67782
ELEMENT_SET_NO = 999
REV_AT_EPOCH   = 242
BSTAR          = .10759596E-2
MEAN_MOTION_DOT = .3411E-3
MEAN_MOTION_DDOT = 0

CCSDS_OMM_VERS = 2.0
CREATION_DATE  = 
ORIGINATOR     = 

OBJECT_NAME    = KUIPER-00223
OBJECT_ID      = 2026-030V
CENTER_NAME    = EARTH
REF_FRAME      = TEME
TIME_SYSTEM    = UTC
MEAN_ELEMENT_THEORY = SGP/SGP4

EPOCH          = 2026-02-21T06:00:02.000160
MEAN_MOTION    = 15.33508450
ECCENTRICITY   = .00121051
INCLINATION    = 51.8822
RA_OF_ASC_NODE = 298.4866
ARG_OF_PERICENTER = 10.8703
MEAN_ANOMALY   = 59.4366

EPHEMERIS_TYPE = 0
CLASSIFICATION_TYPE = U
NORAD_CAT_ID   = 67783
ELEMENT_SET_NO = 999
REV_AT_EPOCH   = 224
BSTAR          = .51059739E-3
MEAN_MOTION_DOT = .16481E-3
MEAN_MOTION_DDOT = 0

CCSDS_OMM_VERS = 2.0
CREATION_DATE  = 
ORIGINATOR     = 

OBJECT_NAME    = KUIPER-00225
OBJECT_ID      = 2026-030W
CENTER_NAME    = EARTH
REF_FRAME      = TEME
TIME_SYSTEM    = UTC
MEAN_ELEMENT_THEORY = SGP/SGP4

EPOCH          = 2026-02-21T06:00:02.000160
MEAN_MOTION    = 15.35123021
ECCENTRICITY   = .00035139
INCLINATION    = 51.8807
RA_OF_ASC_NODE = 298.3847
ARG_OF_PERICENTER = 357.9057
MEAN_ANOMALY   = 121.4418

EPHEMERIS_TYPE = 0
CLASSIFICATION_TYPE = U
NORAD_CAT_ID   = 67784
ELEMENT_SET_NO = 999
REV_AT_EPOCH   = 149
BSTAR          = .62937689E-3
MEAN_MOTION_DOT = .21464E-3
MEAN_MOTION_DDOT = 0

