KUIPER-00203            
1 67773U 26030K   26052.25002315  .00015944  00000+0  49662-3 0  9996
2 67773  51.8795 298.4919 0012423  14.1076  51.1368 15.33360625  1302
KUIPER-00205            
1 67774U 26030L   26052.25002315  .00021654  00000+0  62560-3 0  9994
2 67774  51.8810 298.3617 0001873 343.1182 147.6340 15.35586203  1759
KUIPER-00208            
1 67775U 26030M   26052.25002315  .00015821  00000+0  50147-3 0  9992
2 67775  51.8829 298.5268 0014905  14.5895  36.8653 15.32777644  2311
KUIPER-00209            
1 67776U 26030N   26052.25002315  .00020435  00000+0  64349-3 0  9999
2 67776  51.8823 298.5146 0012446  15.0245  41.6580 15.32829338  1965
KUIPER-00213            
1 67777U 26030P   26052.25002315  .00015363  00000+0  48533-3 0  9991
2 67777  51.8805 298.5126 0014381  14.2291  41.5410 15.32916084  2479
KUIPER-00214            
1 67778U 26030Q   26052.25002315  .00020035  00000+0  57080-3 0  9991
2 67778  51.8844 298.3289 0001612 130.0396  17.6084 15.36075313  2372
KUIPER-00215            
1 67779U 26030R   26052.25002315  .00017049  00000+0  52352-3 0  9990
2 67779  51.8835 298.4715 0010066  11.0612  67.5743 15.33786108  1306
KUIPER-00218            
1 67780U 26030S   26052.25002315  .00018544  00000+0  55638-3 0  9993
2 67780  51.8829 298.4280 0006283   8.2762  90.9446 15.34485698  1343
KUIPER-00220            
1 67781U 26030T   26052.25002315  .00017417  00000+0  53116-3 0  9991
2 67781  51.8806 298.4525 0007955   9.3819  76.4307 15.34004123  2091
KUIPER-00222            
1 67782U 26030U   26052.25002315  .00034110  00000+0  10760-2 0  9998
2 67782  51.8806 298.5352 0016981  14.7692  29.5525 15.32419256  2422
KUIPER-00223            
1 67783U 26030V   26052.25002315  .00016481  00000+0  51060-3 0  9999
2 67783  51.8822 298.4866 0012105  10.8703  59.4366 15.33508450  2245
KUIPER-00225            
1 67784U 26030W   26052.25002315  .00021464  00000+0  62938-3 0  9993
2 67784  51.8807 298.3847 0003513 357.9057 121.4418 15.35123021  1490
